OBJECT_NAME,OBJECT_ID,EPOCH,MEAN_MOTION,ECCENTRICITY,INCLINATION,RA_OF_ASC_NODE,ARG_OF_PERICENTER,MEAN_ANOMALY,EPHEMERIS_TYPE,CLASSIFICATION_TYPE,NORAD_CAT_ID,ELEMENT_SET_NO,REV_AT_EPOCH,BSTAR,MEAN_MOTION_DOT,MEAN_MOTION_DDOT
LEMUR-2-FINNIAN,2025-276DX,2026-07-10T21:18:04.448736,15.00584478,.00084915,97.5322,262.1410,17.3643,342.7870,0,U,66782,999,2355,.14532687E-3,.1778E-4,0
LEMUR-2-STARLIGHT,2025-276DY,2026-07-11T17:34:14.439648,14.99328464,.00147587,97.5233,262.5314,57.4560,302.8087,0,U,66783,999,3387,.319694E-3,.3858E-4,0
LEMUR-2-TARTIFLETTE,2025-276DZ,2026-07-11T17:31:53.410656,14.99314524,.00138609,97.5236,262.5376,65.4884,294.7783,0,U,66784,999,3387,.28252367E-3,.3401E-4,0
LEMUR-2-VUKASIN,2025-276EA,2026-07-11T18:29:14.925696,15.00527711,.00035778,97.5240,262.9290,64.9856,295.1739,0,U,66785,999,3383,.23704415E-3,.2931E-4,0
LEMUR-2-HOTSPUR-TOM,2025-276EB,2026-07-11T17:23:30.411456,14.99219626,.00138345,97.5223,262.5077,56.6609,303.5937,0,U,66786,999,3380,.26466452E-3,.3174E-4,0
LEMUR-2-MYRA,2025-276EC,2026-07-11T17:39:17.777952,15.00564390,.00185373,97.5222,262.8153,64.7520,295.5623,0,U,66787,999,3389,.28884514E-3,.36E-4,0
LEMUR-2 FIKRETDENGIZ,2026-004A,2026-07-11T22:35:08.684736,14.88502523,.00103692,97.8021,191.1219,65.0256,295.2037,0,U,67363,999,2696,.29414354E-3,.2681E-4,0
TWILIGHT-1 OBJECT B,2026-004B,2026-07-11T12:08:26.049120,14.87785770,.00099555,97.8072,190.6963,56.5620,303.6547,0,U,67364,999,2690,.11821451E-3,.1025E-4,0
LEMUR-2-MARIO-SOUSA,2026-004C,2026-07-11T14:02:51.841536,14.88708670,.00100069,97.7995,190.7666,67.2731,292.9543,0,U,67365,999,2692,.25390963E-3,.2318E-4,0
LEMUR-2-SONNENBLUME,2026-004E,2026-07-11T18:56:26.631168,14.88442703,.00095587,97.7998,190.9418,67.7455,292.4775,0,U,67367,999,2695,.17246721E-3,.1547E-4,0
LEMUR-2-WOBLER,2026-004F,2026-07-11T23:32:11.056128,14.88684125,.00096648,97.8046,191.2779,59.0029,301.2136,0,U,67368,999,2698,.20624906E-3,.1872E-4,0
LEMUR-2-GRAM-E-SUE,2026-004H,2026-07-11T23:20:31.401888,14.88580992,.00087289,97.7978,191.1388,69.6926,290.5228,0,U,67370,999,2698,.12360154E-3,.1097E-4,0
LEMUR-2-KATIE,2026-004AA,2026-07-11T22:23:42.533088,14.90232655,.00037233,97.8041,191.6404,41.3938,318.7561,0,U,67387,999,2699,.31446028E-3,.2995E-4,0
LEMUR-2-HCS-BAZUS,2026-004AB,2026-07-11T22:21:23.149152,14.90250498,.00032515,97.8030,191.6175,40.9364,319.2098,0,U,67388,999,2699,.18827933E-3,.1771E-4,0
